NORAD_CAT_ID,OBJECT_NAME,OBJECT_TYPE,EPOCH,MEAN_MOTION,ECCENTRICITY,INCLINATION,RA_OF_ASC_NODE,ARG_OF_PERICENTER,MEAN_ANOMALY,BSTAR,MEAN_MOTION_DOT,MEAN_MOTION_DDOT,TLE_LINE0,TLE_LINE1,TLE_LINE2,SEMIMAJOR_AXIS,PERIOD,APOGEE,PERIGEE,DECAYED
55661.0,STARLINK-5475,PAYLOAD,2023-05-01 20:53:41,15.69932425,0.0003429,69.9978,304.401,264.6129,95.4676,1.9784e-05,2.167e-05,0.0,0 STARLINK-5475,1 55661U 23021AK  23121.87062425  .00002167  00000-0  19784-4 0  9993,2 55661  69.9978 304.4010 0003429 264.6129  95.4676 15.69932425 12324,6737.227,91.724,361.403,356.782,0.0
55661.0,STARLINK-5475,PAYLOAD,2023-05-02 13:42:58,15.6992897,0.0003657,69.9982,302.4306,271.7052,88.3725,1.4543e-05,1.536e-05,0.0,0 STARLINK-5475,1 55661U 23021AK  23122.57150865  .00001536  00000-0  14543-4 0  9994,2 55661  69.9982 302.4306 0003657 271.7052  88.3725 15.69928970 12430,6737.237,91.724,361.566,356.638,0.0
55661.0,STARLINK-5475,PAYLOAD,2023-05-02 18:18:14,15.69915916,0.0003664,69.9997,301.8941,269.8794,90.1982,-6.8949e-06,-1.042e-05,0.0,0 STARLINK-5475,1 55661U 23021AK  23122.76266415 -.00001042  00000-0 -68949-5 0  9998,2 55661  69.9997 301.8941 0003664 269.8794  90.1982 15.69915916 12165,6737.275,91.725,361.608,356.671,0.0
55661.0,STARLINK-5475,PAYLOAD,2023-05-02 21:21:44,15.69920738,0.000337,69.9985,301.5335,266.3699,93.7111,8.6284e-07,-1.09e-06,0.0,0 STARLINK-5475,1 55661U 23021AK  23122.89009521 -.00000109  00000-0  86284-6 0  9990,2 55661  69.9985 301.5335 0003370 266.3699  93.7111 15.69920738 12482,6737.261,91.724,361.396,356.855,0.0
55661.0,STARLINK-5475,PAYLOAD,2023-05-03 14:11:00,15.69930654,0.0003575,69.9992,299.565,272.1295,87.9492,1.3894e-05,1.459e-05,0.0,0 STARLINK-5475,1 55661U 23021AK  23123.59097651  .00001459  00000-0  13894-4 0  9992,2 55661  69.9992 299.5650 0003575 272.1295  87.9492 15.69930654 12294,6737.232,91.724,361.506,356.689,0.0
55661.0,STARLINK-5475,PAYLOAD,2023-05-03 20:18:00,15.69938464,0.0003874,69.9983,298.8471,271.1789,88.8963,3.0158e-05,3.417e-05,0.0,0 STARLINK-5475,1 55661U 23021AK  23123.84583829  .00003417  00000-0  30158-4 0  9995,2 55661  69.9983 298.8471 0003874 271.1789  88.8963 15.69938464 12634,6737.21,91.723,361.685,356.465,0.0
55661.0,STARLINK-5475,PAYLOAD,2023-05-04 13:07:17,15.69922482,0.0003443,69.9994,296.8747,270.3312,89.749,1.0256e-06,-8.9e-07,0.0,0 STARLINK-5475,1 55661U 23021AK  23124.54672935 -.00000089  00000-0  10256-5 0  9991,2 55661  69.9994 296.8747 0003443 270.3312  89.7490 15.69922482 12442,6737.256,91.724,361.44,356.801,0.0
55661.0,STARLINK-5475,PAYLOAD,2023-05-04 19:14:17,15.6993316,0.0003709,69.9988,296.1596,272.9814,87.0957,2.7051e-05,3.042e-05,0.0,0 STARLINK-5475,1 55661U 23021AK  23124.80159174  .00003042  00000-0  27051-4 0  9996,2 55661  69.9988 296.1596 0003709 272.9814  87.0957 15.69933160 12781,6737.225,91.724,361.589,356.591,0.0
55661.0,STARLINK-5475,PAYLOAD,2023-05-05 21:14:04,15.69938282,0.0003752,69.9979,293.1111,254.8308,105.2473,1.9104e-05,2.086e-05,0.0,0 STARLINK-5475,1 55661U 23021AK  23125.88477327  .00002086  00000-0  19104-4 0  9995,2 55661  69.9979 293.1111 0003752 254.8308 105.2473 15.69938282 12658,6737.211,91.723,361.603,356.548,0.0
55661.0,STARLINK-5475,PAYLOAD,2023-05-06 04:52:50,15.69932784,0.0003945,70.0002,292.2207,280.3609,79.7141,3.4615e-05,3.953e-05,0.0,0 STARLINK-5475,1 55661U 23021AK  23126.20336209  .00003953  00000-0  34615-4 0  9993,2 55661  70.0002 292.2207 0003945 280.3609  79.7141 15.69932784 12700,6737.226,91.724,361.749,356.433,0.0
55661.0,STARLINK-5475,PAYLOAD,2023-05-06 14:03:21,15.69930422,0.0003506,69.9987,291.1428,271.9511,88.1283,1.2395e-05,1.278e-05,0.0,0 STARLINK-5475,1 55661U 23021AK  23126.58566261  .00001278  00000-0  12395-4 0  9996,2 55661  69.9987 291.1428 0003506 271.9511  88.1283 15.69930422 13061,6737.233,91.724,361.46,356.736,0.0
55661.0,STARLINK-5475,PAYLOAD,2023-05-07 12:59:38,15.69927581,0.0003367,70.0013,288.459,265.3479,94.7332,2.4994e-05,2.794e-05,0.0,0 STARLINK-5475,1 55661U 23021AK  23127.54141238  .00002794  00000-0  24994-4 0  9998,2 55661  70.0013 288.4590 0003367 265.3479  94.7332 15.69927581 12911,6737.241,91.724,361.375,356.838,0.0
55661.0,STARLINK-5475,PAYLOAD,2023-05-07 20:38:24,15.69916698,0.0003473,69.9991,287.5623,270.2471,89.8327,8.2736e-06,7.82e-06,0.0,0 STARLINK-5475,1 55661U 23021AK  23127.86000426  .00000782  00000-0  82736-5 0  9990,2 55661  69.9991 287.5623 0003473 270.2471  89.8327 15.69916698 12966,6737.272,91.725,361.477,356.797,0.0
55661.0,STARLINK-5475,PAYLOAD,2023-05-08 04:17:09,15.69926033,0.0003208,69.9991,286.6653,274.3165,85.7664,5.2666e-06,4.21e-06,0.0,0 STARLINK-5475,1 55661U 23021AK  23128.17858218  .00000421  00000-0  52666-5 0  9994,2 55661  69.9991 286.6653 0003208 274.3165  85.7664 15.69926033 13010,6737.246,91.724,361.272,356.949,0.0
55661.0,STARLINK-5475,PAYLOAD,2023-05-08 19:34:41,15.69921797,0.0003329,69.9985,284.8719,266.3116,93.7699,-4.5013e-06,-7.54e-06,0.0,0 STARLINK-5475,1 55661U 23021AK  23128.81575315 -.00000754  00000-0 -45013-5 0  9998,2 55661  69.9985 284.8719 0003329 266.3116  93.7699 15.69921797 13410,6737.258,91.724,361.366,356.88,0.0
55661.0,STARLINK-5475,PAYLOAD,2023-05-09 13:55:42,15.69916747,0.0003744,69.9974,282.7234,271.5625,88.5142,1.24e-05,1.278e-05,0.0,0 STARLINK-5475,1 55661U 23021AK  23129.58035427  .00001278  00000-0  12400-4 0  9991,2 55661  69.9974 282.7234 0003744 271.5625  88.5142 15.69916747 13538,6737.272,91.725,361.66,356.615,0.0
55661.0,STARLINK-5475,PAYLOAD,2023-05-10 12:51:59,15.69919132,0.0003449,69.9987,280.0362,270.5882,89.4919,1.6672e-05,1.792e-05,0.0,0 STARLINK-5475,1 55661U 23021AK  23130.53610607  .00001792  00000-0  16672-4 0  9993,2 55661  69.9987 280.0362 0003449 270.5882  89.4919 15.69919132 13680,6737.265,91.724,361.454,356.807,0.0
55661.0,STARLINK-5475,PAYLOAD,2023-05-10 17:27:14,15.69929645,0.0003081,69.9986,279.4984,271.0452,89.0391,2.5033e-05,2.799e-05,0.0,0 STARLINK-5475,1 55661U 23021AK  23130.72724890  .00002799  00000-0  25033-4 0  9993,2 55661  69.9986 279.4984 0003081 271.0452  89.0391 15.69929645 13413,6737.235,91.724,361.176,357.025,0.0
55661.0,STARLINK-5475,PAYLOAD,2023-05-10 18:58:59,15.69933312,0.0003261,69.9981,279.3194,270.4579,89.6243,2.9932e-05,3.389e-05,0.0,0 STARLINK-5475,1 55661U 23021AK  23130.79096232  .00003389  00000-0  29932-4 0  9990,2 55661  69.9981 279.3194 0003261 270.4579  89.6243 15.69933312 13725,6737.225,91.724,361.287,356.893,0.0
55661.0,STARLINK-5475,PAYLOAD,2023-05-10 22:02:30,15.69921824,0.0003037,69.9985,278.9622,283.1598,76.9259,2.3257e-05,2.584e-05,0.0,0 STARLINK-5475,1 55661U 23021AK  23130.91840556  .00002584  00000-0  23257-4 0  9990,2 55661  69.9985 278.9622 0003037 283.1598  76.9259 15.69921824 13443,6737.258,91.724,361.169,357.077,0.0
55661.0,STARLINK-5475,PAYLOAD,2023-05-11 10:16:31,15.69922268,0.0002505,69.9991,277.531,292.0428,68.0502,2.0964e-06,4e-07,0.0,0 STARLINK-5475,1 55661U 23021AK  23131.42814619  .00000040  00000-0  20964-5 0  9996,2 55661  69.9991 277.5310 0002505 292.0428  68.0502 15.69922268 13827,6737.256,91.724,360.809,357.434,0.0
55661.0,STARLINK-5475,PAYLOAD,2023-05-11 11:48:17,15.69917507,0.0002929,69.9984,277.3512,280.4605,79.6261,-3.3037e-06,-6.1e-06,0.0,0 STARLINK-5475,1 55661U 23021AK  23131.49186530 -.00000610  00000-0 -33037-5 0  9997,2 55661  69.9984 277.3512 0002929 280.4605  79.6261 15.69917507 13537,6737.27,91.725,361.108,357.162,0.0
55661.0,STARLINK-5475,PAYLOAD,2023-05-11 16:23:31,15.69925052,0.0003633,69.9977,276.8132,265.8094,94.2687,4.9099e-06,3.77e-06,0.0,0 STARLINK-5475,1 55661U 23021AK  23131.68300746  .00000377  00000-0  49099-5 0  9998,2 55661  69.9977 276.8132 0003633 265.8094  94.2687 15.69925052 13565,6737.248,91.724,361.561,356.666,0.0
55661.0,STARLINK-5475,PAYLOAD,2023-05-11 19:27:02,15.69927509,0.0003356,69.997,276.4536,267.9234,92.1577,6.6569e-06,5.88e-06,0.0,0 STARLINK-5475,1 55661U 23021AK  23131.81043983  .00000588  00000-0  66569-5 0  9995,2 55661  69.9970 276.4536 0003356 267.9234  92.1577 15.69927509 13882,6737.241,91.724,361.367,356.845,0.0
55661.0,STARLINK-5475,PAYLOAD,2023-05-12 18:23:18,15.69935014,0.0003547,69.9985,273.7676,269.6895,90.3895,8.8755e-06,8.55e-06,0.0,0 STARLINK-5475,1 55661U 23021AK  23132.76618438  .00000855  00000-0  88755-5 0  9991,2 55661  69.9985 273.7676 0003547 269.6895  90.3895 15.69935014 13734,6737.22,91.724,361.475,356.695,0.0
55661.0,STARLINK-5475,PAYLOAD,2023-05-13 12:44:21,15.69916497,0.0003299,69.9987,271.6204,247.6667,112.4179,3.4648e-06,2.04e-06,0.0,0 STARLINK-5475,1 55661U 23021AK  23133.53080006  .00000204  00000-0  34648-5 0  9991,2 55661  69.9987 271.6204 0003299 247.6667 112.4179 15.69916497 13855,6737.273,91.725,361.361,356.915,0.0
55661.0,STARLINK-5475,PAYLOAD,2023-05-13 18:51:21,15.69913432,0.0002997,69.9998,270.9013,260.558,99.5277,1.2447e-05,1.284e-05,0.0,0 STARLINK-5475,1 55661U 23021AK  23133.78566912  .00001284  00000-0  12447-4 0  9994,2 55661  69.9998 270.9013 0002997 260.5580  99.5277 15.69913432 14197,6737.282,91.725,361.166,357.128,0.0
55661.0,STARLINK-5475,PAYLOAD,2023-05-14 11:40:36,15.69940217,0.0003426,69.9993,268.9327,260.9717,99.1091,7.2195e-06,6.56e-06,0.0,0 STARLINK-5475,1 55661U 23021AK  23134.48653423  .00000656  00000-0  72195-5 0  9995,2 55661  69.9993 268.9327 0003426 260.9717  99.1091 15.69940217 14002,6737.205,91.723,361.378,356.762,0.0
55661.0,STARLINK-5475,PAYLOAD,2023-05-14 19:19:24,15.69908496,0.0003143,69.9995,268.0367,263.3152,96.7686,-2.7243e-05,-3.485e-05,0.0,0 STARLINK-5475,1 55661U 23021AK  23134.80514031 -.00003485  00000-0 -27243-4 0  9990,2 55661  69.9995 268.0367 0003143 263.3152  96.7686 15.69908496 14359,6737.296,91.725,361.278,357.043,0.0
55661.0,STARLINK-5475,PAYLOAD,2023-05-14 20:51:09,15.69911495,0.0003411,69.999,267.8569,266.573,93.5076,-2.6555e-05,-3.403e-05,0.0,0 STARLINK-5475,1 55661U 23021AK  23134.86885483 -.00003403  00000-0 -26555-4 0  9993,2 55661  69.9990 267.8569 0003411 266.5730  93.5076 15.69911495 14069,6737.287,91.725,361.45,356.854,0.0
